{"type": "FeatureCollection", "features": [ {"type": "Feature", "properties": {"norad_id": 33905, "name": "COSMOS 2251 DEB", "group": "cosmos-2251-debris", "lat": -44.598827224545694, "lon": -40.875631680496404, "alt_km": 777.1551008420884, "timestamp": "2025-12-02T10:50:47.668530+00:00", "meta": {"OBJECT_NAME": "COSMOS 2251 DEB", "OBJECT_ID": "1993-036DJ", "EPOCH": "2025-12-02T03:04:53.226912", "MEAN_MOTION": 14.35316881, "ECCENTRICITY": 0.0059526, "INCLINATION": 73.8868, "RA_OF_ASC_NODE": 336.2848, "ARG_OF_PERICENTER": 227.7488, "MEAN_ANOMALY": 213.5464, "EPHEMERIS_TYPE": 0, "CLASSIFICATION_TYPE": "U", "NORAD_CAT_ID": 33905, "ELEMENT_SET_NO": 999, "REV_AT_EPOCH": 87535, "BSTAR": 0.00086975, "MEAN_MOTION_DOT": 2.517e-05, "MEAN_MOTION_DDOT": 0}, "tle": {"line1": "1 33905U 93036DJ  25336.12839383  .00002517  00000+0  86975-3 0  9999", "line2": "2 33905  73.8868 336.2848 0059526 227.7488 213.5464 14.35316881875354"}}, "geometry": {"type": "Point", "coordinates": [-40.875631680496404, -44.598827224545694]}}, {"type": "Feature", "properties": {"norad_id": 33906, "name": "COSMOS 2251 DEB", "group": "cosmos-2251-debris", "lat": 57.08346058376278, "lon": 134.76530995852937, "alt_km": 705.0306122339989, "timestamp": "2025-12-02T10:50:47.668540+00:00", "meta": {"OBJECT_NAME": "COSMOS 2251 DEB", "OBJECT_ID": "1993-036DK", "EPOCH": "2025-12-02T02:21:02.553408", "MEAN_MOTION": 14.56778838, "ECCENTRICITY": 0.0036201, "INCLINATION": 74.0309, "RA_OF_ASC_NODE": 341.6912, "ARG_OF_PERICENTER": 13.157, "MEAN_ANOMALY": 49.8275, "EPHEMERIS_TYPE": 0, "CLASSIFICATION_TYPE": "U", "NORAD_CAT_ID": 33906, "ELEMENT_SET_NO": 999, "REV_AT_EPOCH": 87853, "BSTAR": 0.0022492, "MEAN_MOTION_DOT": 0.0001014, "MEAN_MOTION_DDOT": 0}, "tle": {"line1": "1 33906U 93036DK  25336.09794622  .00010140  00000+0  22492-2 0  9996", "line2": "2 33906  74.0309 341.6912 0036201  13.1570  49.8275 14.56778838878534"}}, "geometry": {"type": "Point", "coordinates": [134.76530995852937, 57.08346058376278]}}, {"type": "Feature", "properties": {"norad_id": 33907, "name": "COSMOS 2251 DEB", "group": "cosmos-2251-debris", "lat": -8.624642731190143, "lon": 49.85212723839144, "alt_km": 833.838257447128, "timestamp": "2025-12-02T10:50:47.668551+00:00", "meta": {"OBJECT_NAME": "COSMOS 2251 DEB", "OBJECT_ID": "1993-036DL", "EPOCH": "2025-12-01T15:17:34.315008", "MEAN_MOTION": 14.30339712, "ECCENTRICITY": 0.0113344, "INCLINATION": 74.0701, "RA_OF_ASC_NODE": 53.8136, "ARG_OF_PERICENTER": 112.563, "MEAN_ANOMALY": 6.1161, "EPHEMERIS_TYPE": 0, "CLASSIFICATION_TYPE": "U", "NORAD_CAT_ID": 33907, "ELEMENT_SET_NO": 999, "REV_AT_EPOCH": 86421, "BSTAR": 0.0018095141, "MEAN_MOTION_DOT": 5.018e-05, "MEAN_MOTION_DDOT": 0}, "tle": {"line1": "1 33907U 93036DL  25335.63720272  .00005018  00000+0  18095-2 0  9998", "line2": "2 33907  74.0701  53.8136 0113344 112.5630   6.1161 14.30339712864212"}}, "geometry": {"type": "Point", "coordinates": [49.85212723839144, -8.624642731190143]}}, {"type": "Feature", "properties": {"norad_id": 33908, "name": "COSMOS 2251 DEB", "group": "cosmos-2251-debris", "lat": 23.024322898075432, "lon": 36.94002580232589, "alt_km": 874.3061881156582, "timestamp": "2025-12-02T10:50:47.668562+00:00", "meta": {"OBJECT_NAME": "COSMOS 2251 DEB", "OBJECT_ID": "1993-036DM", "EPOCH": "2025-12-02T03:15:36.532800", "MEAN_MOTION": 14.0721695, "ECCENTRICITY": 0.0224062, "INCLINATION": 73.8381, "RA_OF_ASC_NODE": 224.5796, "ARG_OF_PERICENTER": 249.9667, "MEAN_ANOMALY": 107.7224, "EPHEMERIS_TYPE": 0, "CLASSIFICATION_TYPE": "U", "NORAD_CAT_ID": 33908, "ELEMENT_SET_NO": 999, "REV_AT_EPOCH": 85324, "BSTAR": 0.0016738, "MEAN_MOTION_DOT": 3.5e-05, "MEAN_MOTION_DDOT": 0}, "tle": {"line1": "1 33908U 93036DM  25336.13583950  .00003500  00000+0  16738-2 0  9991", "line2": "2 33908  73.8381 224.5796 0224062 249.9667 107.7224 14.07216950853249"}}, "geometry": {"type": "Point", "coordinates": [36.94002580232589, 23.024322898075432]}}, {"type": "Feature", "properties": {"norad_id": 33911, "name": "COSMOS 2251 DEB", "group": "cosmos-2251-debris", "lat": -42.373508089716964, "lon": 166.79686785865232, "alt_km": 663.4789955209271, "timestamp": "2025-12-02T10:50:47.668572+00:00", "meta": {"OBJECT_NAME": "COSMOS 2251 DEB", "OBJECT_ID": "1993-036DQ", "EPOCH": "2025-12-01T17:40:44.210784", "MEAN_MOTION": 14.74398701, "ECCENTRICITY": 0.0014597, "INCLINATION": 74.0907, "RA_OF_ASC_NODE": 183.2703, "ARG_OF_PERICENTER": 130.5634, "MEAN_ANOMALY": 349.8292, "EPHEMERIS_TYPE": 0, "CLASSIFICATION_TYPE": "U", "NORAD_CAT_ID": 33911, "ELEMENT_SET_NO": 999, "REV_AT_EPOCH": 88482, "BSTAR": 0.0017069, "MEAN_MOTION_DOT": 0.00011331, "MEAN_MOTION_DDOT": 0}, "tle": {"line1": "1 33911U 93036DQ  25335.73662281  .00011331  00000+0  17069-2 0  9994", "line2": "2 33911  74.0907 183.2703 0014597 130.5634 349.8292 14.74398701884829"}}, "geometry": {"type": "Point", "coordinates": [166.79686785865232, -42.373508089716964]}}, {"type": "Feature", "properties": {"norad_id": 33912, "name": "COSMOS 2251 DEB", "group": "cosmos-2251-debris", "lat": -33.13202288010561, "lon": -161.666970306758, "alt_km": 719.0419688632774, "timestamp": "2025-12-02T10:50:47.668582+00:00", "meta": {"OBJECT_NAME": "COSMOS 2251 DEB", "OBJECT_ID": "1993-036DR", "EPOCH": "2025-12-02T03:28:34.519008", "MEAN_MOTION": 14.51798837, "ECCENTRICITY": 0.0011609, "INCLINATION": 74.0339, "RA_OF_ASC_NODE": 209.6808, "ARG_OF_PERICENTER": 288.424, "MEAN_ANOMALY": 232.5687, "EPHEMERIS_TYPE": 0, "CLASSIFICATION_TYPE": "U", "NORAD_CAT_ID": 33912, "ELEMENT_SET_NO": 999, "REV_AT_EPOCH": 88279, "BSTAR": 0.00081349, "MEAN_MOTION_DOT": 3.249e-05, "MEAN_MOTION_DDOT": 0}, "tle": {"line1": "1 33912U 93036DR  25336.14484397  .00003249  00000+0  81349-3 0  9993", "line2": "2 33912  74.0339 209.6808 0011609 288.4240 232.5687 14.51798837882794"}}, "geometry": {"type": "Point", "coordinates": [-161.666970306758, -33.13202288010561]}}, {"type": "Feature", "properties": {"norad_id": 33913, "name": "COSMOS 2251 DEB", "group": "cosmos-2251-debris", "lat": 3.462564645489056, "lon": 21.92569380551915, "alt_km": 755.3776507396879, "timestamp": "2025-12-02T10:50:47.668593+00:00", "meta": {"OBJECT_NAME": "COSMOS 2251 DEB", "OBJECT_ID": "1993-036DS", "EPOCH": "2025-12-02T02:19:45.005088", "MEAN_MOTION": 14.48417372, "ECCENTRICITY": 0.0048125, "INCLINATION": 74.0341, "RA_OF_ASC_NODE": 203.5828, "ARG_OF_PERICENTER": 308.1318, "MEAN_ANOMALY": 178.8058, "EPHEMERIS_TYPE": 0, "CLASSIFICATION_TYPE": "U", "NORAD_CAT_ID": 33913, "ELEMENT_SET_NO": 999, "REV_AT_EPOCH": 88303, "BSTAR": 0.00062291, "MEAN_MOTION_DOT": 2.34e-05, "MEAN_MOTION_DDOT": 0}, "tle": {"line1": "1 33913U 93036DS  25336.09704867  .00002340  00000+0  62291-3 0  9991", "line2": "2 33913  74.0341 203.5828 0048125 308.1318 178.8058 14.48417372883032"}}, "geometry": {"type": "Point", "coordinates": [21.92569380551915, 3.462564645489056]}}, {"type": "Feature", "properties": {"norad_id": 33914, "name": "COSMOS 2251 DEB", "group": "cosmos-2251-debris", "lat": 74.07449417055008, "lon": 123.91291321980438, "alt_km": 829.8086437537113, "timestamp": "2025-12-02T10:50:47.668603+00:00", "meta": {"OBJECT_NAME": "COSMOS 2251 DEB", "OBJECT_ID": "1993-036DT", "EPOCH": "2025-12-02T03:44:04.011072", "MEAN_MOTION": 13.71966032, "ECCENTRICITY": 0.0302109, "INCLINATION": 74.0917, "RA_OF_ASC_NODE": 32.5371, "ARG_OF_PERICENTER": 138.1117, "MEAN_ANOMALY": 291.8113, "EPHEMERIS_TYPE": 0, "CLASSIFICATION_TYPE": "U", "NORAD_CAT_ID": 33914, "ELEMENT_SET_NO": 999, "REV_AT_EPOCH": 83936, "BSTAR": 0.00075109, "MEAN_MOTION_DOT": 9.24e-06, "MEAN_MOTION_DDOT": 0}, "tle": {"line1": "1 33914U 93036DT  25336.15560198  .00000924  00000+0  75109-3 0  9994", "line2": "2 33914  74.0917  32.5371 0302109 138.1117 291.8113 13.71966032839360"}}, "geometry": {"type": "Point", "coordinates": [123.91291321980438, 74.07449417055008]}}, {"type": "Feature", "properties": {"norad_id": 33915, "name": "COSMOS 2251 DEB", "group": "cosmos-2251-debris", "lat": 37.07704355607349, "lon": 65.44609910603593, "alt_km": 796.0314715098193, "timestamp": "2025-12-02T10:50:47.668613+00:00", "meta": {"OBJECT_NAME": "COSMOS 2251 DEB", "OBJECT_ID": "1993-036DU", "EPOCH": "2025-12-01T23:46:56.396928", "MEAN_MOTION": 14.35035917, "ECCENTRICITY": 0.010511, "INCLINATION": 74.0439, "RA_OF_ASC_NODE": 53.8048, "ARG_OF_PERICENTER": 149.1429, "MEAN_ANOMALY": 30.2346, "EPHEMERIS_TYPE": 0, "CLASSIFICATION_TYPE": "U", "NORAD_CAT_ID": 33915, "ELEMENT_SET_NO": 999, "REV_AT_EPOCH": 87603, "BSTAR": 0.00058816, "MEAN_MOTION_DOT": 1.758e-05, "MEAN_MOTION_DDOT": 0}, "tle": {"line1": "1 33915U 93036DU  25335.99093052  .00001758  00000+0  58816-3 0  9998", "line2": "2 33915  74.0439  53.8048 0105110 149.1429  30.2346 14.35035917876036"}}, "geometry": {"type": "Point", "coordinates": [65.44609910603593, 37.07704355607349]}}, {"type": "Feature", "properties": {"norad_id": 33916, "name": "COSMOS 2251 DEB", "group": "cosmos-2251-debris", "lat": 56.23750588605143, "lon": -147.8292351253802, "alt_km": 1080.9526223666753, "timestamp": "2025-12-02T10:50:47.668623+00:00", "meta": {"OBJECT_NAME": "COSMOS 2251 DEB", "OBJECT_ID": "1993-036DV", "EPOCH": "2025-12-01T15:31:43.295232", "MEAN_MOTION": 13.68590722, "ECCENTRICITY": 0.03255268, "INCLINATION": 74.0531, "RA_OF_ASC_NODE": 58.8144, "ARG_OF_PERICENTER": 233.3133, "MEAN_ANOMALY": 246.0463, "EPHEMERIS_TYPE": 0, "CLASSIFICATION_TYPE": "U", "NORAD_CAT_ID": 33916, "ELEMENT_SET_NO": 999, "REV_AT_EPOCH": 83739, "BSTAR": 0.00062424901, "MEAN_MOTION_DOT": 7.52e-06, "MEAN_MOTION_DDOT": 0}, "tle": {"line1": "1 33916U 93036DV  25335.64702888  .00000752  00000+0  62425-3 0  9999", "line2": "2 33916  74.0531  58.8144 0325526 233.3133 246.0463 13.68590722837393"}}, "geometry": {"type": "Point", "coordinates": [-147.8292351253802, 56.23750588605143]}}]}